{"type": "FeatureCollection", "features": [ {"type": "Feature", "properties": {"norad_id": 28659, "name": "DIRECTV 8", "group": "intelsat", "lat": -0.03457687006087249, "lon": -120.71068313571534, "alt_km": 35772.99440510337, "timestamp": "2025-12-06T18:50:09.838204+00:00", "meta": {"OBJECT_NAME": "DIRECTV 8", "OBJECT_ID": "2005-019A", "EPOCH": "2025-12-06T07:42:37.156896", "MEAN_MOTION": 1.00271085, "ECCENTRICITY": 0.00032771, "INCLINATION": 0.0108, "RA_OF_ASC_NODE": 318.3353, "ARG_OF_PERICENTER": 298.1457, "MEAN_ANOMALY": 175.4882, "EPHEMERIS_TYPE": 0, "CLASSIFICATION_TYPE": "U", "NORAD_CAT_ID": 28659, "ELEMENT_SET_NO": 999, "REV_AT_EPOCH": 7513, "BSTAR": 0, "MEAN_MOTION_DOT": 9e-08, "MEAN_MOTION_DDOT": 0}, "tle": {"line1": "1 28659U 05019A   25340.32126339  .00000009  00000+0  00000+0 0  9995", "line2": "2 28659   0.0108 318.3353 0003277 298.1457 175.4882  1.00271085 75137"}}, "geometry": {"type": "Point", "coordinates": [-120.71068313571534, -0.03457687006087249]}}, {"type": "Feature", "properties": {"norad_id": 28702, "name": "GALAXY 28 (G-28)", "group": "intelsat", "lat": -0.43034298702302504, "lon": -90.33552801613503, "alt_km": 35775.2921361794, "timestamp": "2025-12-06T18:50:09.838216+00:00", "meta": {"OBJECT_NAME": "GALAXY 28 (G-28)", "OBJECT_ID": "2005-022A", "EPOCH": "2025-12-06T06:23:46.351680", "MEAN_MOTION": 1.00271768, "ECCENTRICITY": 0.00026484, "INCLINATION": 2.8021, "RA_OF_ASC_NODE": 81.3575, "ARG_OF_PERICENTER": 174.1922, "MEAN_ANOMALY": 187.0142, "EPHEMERIS_TYPE": 0, "CLASSIFICATION_TYPE": "U", "NORAD_CAT_ID": 28702, "ELEMENT_SET_NO": 999, "REV_AT_EPOCH": 5004, "BSTAR": 0, "MEAN_MOTION_DOT": -1.81e-06, "MEAN_MOTION_DDOT": 0}, "tle": {"line1": "1 28702U 05022A   25340.26650870 -.00000181  00000+0  00000+0 0  9995", "line2": "2 28702   2.8021  81.3575 0002648 174.1922 187.0142  1.00271768 50043"}}, "geometry": {"type": "Point", "coordinates": [-90.33552801613503, -0.43034298702302504]}}, {"type": "Feature", "properties": {"norad_id": 29236, "name": "GALAXY 16 (G-16)", "group": "intelsat", "lat": -0.004368061741965193, "lon": -100.65913380558717, "alt_km": 35773.56007055258, "timestamp": "2025-12-06T18:50:09.838227+00:00", "meta": {"OBJECT_NAME": "GALAXY 16 (G-16)", "OBJECT_ID": "2006-023A", "EPOCH": "2025-12-06T05:40:35.157792", "MEAN_MOTION": 1.00271106, "ECCENTRICITY": 0.00030043, "INCLINATION": 0.0136, "RA_OF_ASC_NODE": 227.9461, "ARG_OF_PERICENTER": 32.7245, "MEAN_ANOMALY": 160.7481, "EPHEMERIS_TYPE": 0, "CLASSIFICATION_TYPE": "U", "NORAD_CAT_ID": 29236, "ELEMENT_SET_NO": 999, "REV_AT_EPOCH": 7103, "BSTAR": 0, "MEAN_MOTION_DOT": -1.19e-06, "MEAN_MOTION_DDOT": 0}, "tle": {"line1": "1 29236U 06023A   25340.23651803 -.00000119  00000+0  00000+0 0  9995", "line2": "2 29236   0.0136 227.9461 0003004  32.7245 160.7481  1.00271106 71031"}}, "geometry": {"type": "Point", "coordinates": [-100.65913380558717, -0.004368061741965193]}}, {"type": "Feature", "properties": {"norad_id": 29494, "name": "DIRECTV 9S", "group": "intelsat", "lat": 0.17957499390095066, "lon": -102.85388629131651, "alt_km": 35772.607813091185, "timestamp": "2025-12-06T18:50:09.838239+00:00", "meta": {"OBJECT_NAME": "DIRECTV 9S", "OBJECT_ID": "2006-043A", "EPOCH": "2025-12-06T06:12:00.288288", "MEAN_MOTION": 1.00270522, "ECCENTRICITY": 0.00032605, "INCLINATION": 1.9227, "RA_OF_ASC_NODE": 83.2777, "ARG_OF_PERICENTER": 173.3106, "MEAN_ANOMALY": 170.5049, "EPHEMERIS_TYPE": 0, "CLASSIFICATION_TYPE": "U", "NORAD_CAT_ID": 29494, "ELEMENT_SET_NO": 999, "REV_AT_EPOCH": 4944, "BSTAR": 0, "MEAN_MOTION_DOT": -1.06e-06, "MEAN_MOTION_DDOT": 0}, "tle": {"line1": "1 29494U 06043A   25340.25833667 -.00000106  00000+0  00000+0 0  9991", "line2": "2 29494   1.9227  83.2777 0003260 173.3106 170.5049  1.00270522 49443"}}, "geometry": {"type": "Point", "coordinates": [-102.85388629131651, 0.17957499390095066]}}, {"type": "Feature", "properties": {"norad_id": 31307, "name": "GALAXY 17 (G-17)", "group": "intelsat", "lat": -0.4992473674032551, "lon": -86.62643461477136, "alt_km": 35764.535149267795, "timestamp": "2025-12-06T18:50:09.838251+00:00", "meta": {"OBJECT_NAME": "GALAXY 17 (G-17)", "OBJECT_ID": "2007-016B", "EPOCH": "2025-12-06T06:24:46.256256", "MEAN_MOTION": 1.00270105, "ECCENTRICITY": 0.00060798, "INCLINATION": 2.4829, "RA_OF_ASC_NODE": 82.3582, "ARG_OF_PERICENTER": 160.0737, "MEAN_ANOMALY": 204.0669, "EPHEMERIS_TYPE": 0, "CLASSIFICATION_TYPE": "U", "NORAD_CAT_ID": 31307, "ELEMENT_SET_NO": 999, "REV_AT_EPOCH": 6787, "BSTAR": 0, "MEAN_MOTION_DOT": -1.99e-06, "MEAN_MOTION_DDOT": 0}, "tle": {"line1": "1 31307U 07016B   25340.26720204 -.00000199  00000+0  00000+0 0  9993", "line2": "2 31307   2.4829  82.3582 0006079 160.0737 204.0669  1.00270105 67876"}}, "geometry": {"type": "Point", "coordinates": [-86.62643461477136, -0.4992473674032551]}}, {"type": "Feature", "properties": {"norad_id": 31862, "name": "DIRECTV 10", "group": "intelsat", "lat": 0.0023989354478824152, "lon": -104.43623463045407, "alt_km": 35785.38758775113, "timestamp": "2025-12-06T18:50:09.838262+00:00", "meta": {"OBJECT_NAME": "DIRECTV 10", "OBJECT_ID": "2007-032A", "EPOCH": "2025-12-06T00:16:38.669952", "MEAN_MOTION": 1.00271476, "ECCENTRICITY": 3.614e-05, "INCLINATION": 0.0039, "RA_OF_ASC_NODE": 84.3473, "ARG_OF_PERICENTER": 112.2755, "MEAN_ANOMALY": 139.8068, "EPHEMERIS_TYPE": 0, "CLASSIFICATION_TYPE": "U", "NORAD_CAT_ID": 31862, "ELEMENT_SET_NO": 999, "REV_AT_EPOCH": 4365, "BSTAR": 0, "MEAN_MOTION_DOT": -9.4e-07, "MEAN_MOTION_DDOT": 0}, "tle": {"line1": "1 31862U 07032A   25340.01155868 -.00000094  00000+0  00000+0 0  9992", "line2": "2 31862   0.0039  84.3473 0000361 112.2755 139.8068  1.00271476 43657"}}, "geometry": {"type": "Point", "coordinates": [-104.43623463045407, 0.0023989354478824152]}}, {"type": "Feature", "properties": {"norad_id": 32253, "name": "INTELSAT 11 (IS-11)", "group": "intelsat", "lat": 0.5458451601985175, "lon": -109.71014961558258, "alt_km": 36093.47423191851, "timestamp": "2025-12-06T18:50:09.838274+00:00", "meta": {"OBJECT_NAME": "INTELSAT 11 (IS-11)", "OBJECT_ID": "2007-044B", "EPOCH": "2025-12-06T07:48:09.503136", "MEAN_MOTION": 0.99047158, "ECCENTRICITY": 0.00092732, "INCLINATION": 3.0627, "RA_OF_ASC_NODE": 81.0469, "ARG_OF_PERICENTER": 162.9778, "MEAN_ANOMALY": 202.3166, "EPHEMERIS_TYPE": 0, "CLASSIFICATION_TYPE": "U", "NORAD_CAT_ID": 32253, "ELEMENT_SET_NO": 999, "REV_AT_EPOCH": 6654, "BSTAR": 0, "MEAN_MOTION_DOT": 4.7e-07, "MEAN_MOTION_DDOT": 0}, "tle": {"line1": "1 32253U 07044B   25340.32510999  .00000047  00000+0  00000+0 0  9991", "line2": "2 32253   3.0627  81.0469 0009273 162.9778 202.3166  0.99047158 66548"}}, "geometry": {"type": "Point", "coordinates": [-109.71014961558258, 0.5458451601985175]}}, {"type": "Feature", "properties": {"norad_id": 32388, "name": "HORIZONS-2", "group": "intelsat", "lat": -0.795126500724758, "lon": -75.42113630884492, "alt_km": 35765.88587057972, "timestamp": "2025-12-06T18:50:09.838285+00:00", "meta": {"OBJECT_NAME": "HORIZONS-2", "OBJECT_ID": "2007-063B", "EPOCH": "2025-12-06T06:28:00.945696", "MEAN_MOTION": 1.00271217, "ECCENTRICITY": 0.00050844, "INCLINATION": 2.1039, "RA_OF_ASC_NODE": 83.0311, "ARG_OF_PERICENTER": 183.8655, "MEAN_ANOMALY": 191.6405, "EPHEMERIS_TYPE": 0, "CLASSIFICATION_TYPE": "U", "NORAD_CAT_ID": 32388, "ELEMENT_SET_NO": 999, "REV_AT_EPOCH": 6588, "BSTAR": 0, "MEAN_MOTION_DOT": -2.47e-06, "MEAN_MOTION_DDOT": 0}, "tle": {"line1": "1 32388U 07063B   25340.26945539 -.00000247  00000+0  00000+0 0  9999", "line2": "2 32388   2.1039  83.0311 0005084 183.8655 191.6405  1.00271217 65884"}}, "geometry": {"type": "Point", "coordinates": [-75.42113630884492, -0.795126500724758]}}, {"type": "Feature", "properties": {"norad_id": 32729, "name": "DIRECTV 11", "group": "intelsat", "lat": -0.005937691724471151, "lon": -100.84907232266232, "alt_km": 35786.105803894054, "timestamp": "2025-12-06T18:50:09.838297+00:00", "meta": {"OBJECT_NAME": "DIRECTV 11", "OBJECT_ID": "2008-013A", "EPOCH": "2025-12-05T21:47:02.789088", "MEAN_MOTION": 1.0026924, "ECCENTRICITY": 4.793e-05, "INCLINATION": 0.0051, "RA_OF_ASC_NODE": 253.8201, "ARG_OF_PERICENTER": 295.7852, "MEAN_ANOMALY": 112.9152, "EPHEMERIS_TYPE": 0, "CLASSIFICATION_TYPE": "U", "NORAD_CAT_ID": 32729, "ELEMENT_SET_NO": 999, "REV_AT_EPOCH": 4365, "BSTAR": 0, "MEAN_MOTION_DOT": -1.16e-06, "MEAN_MOTION_DDOT": 0}, "tle": {"line1": "1 32729U 08013A   25339.90767117 -.00000116  00000+0  00000+0 0  9992", "line2": "2 32729   0.0051 253.8201 0000479 295.7852 112.9152  1.00269240 43653"}}, "geometry": {"type": "Point", "coordinates": [-100.84907232266232, -0.005937691724471151]}}, {"type": "Feature", "properties": {"norad_id": 32951, "name": "GALAXY 18 (G-18)", "group": "intelsat", "lat": -0.018997699110311198, "lon": -124.67459630095152, "alt_km": 35773.39168820338, "timestamp": "2025-12-06T18:50:09.838309+00:00", "meta": {"OBJECT_NAME": "GALAXY 18 (G-18)", "OBJECT_ID": "2008-024A", "EPOCH": "2025-12-06T06:13:54.795936", "MEAN_MOTION": 1.0026989, "ECCENTRICITY": 0.00033341, "INCLINATION": 0.0151, "RA_OF_ASC_NODE": 41.9109, "ARG_OF_PERICENTER": 214.3924, "MEAN_ANOMALY": 149.4696, "EPHEMERIS_TYPE": 0, "CLASSIFICATION_TYPE": "U", "NORAD_CAT_ID": 32951, "ELEMENT_SET_NO": 999, "REV_AT_EPOCH": 4391, "BSTAR": 0, "MEAN_MOTION_DOT": 3.3e-07, "MEAN_MOTION_DDOT": 0}, "tle": {"line1": "1 32951U 08024A   25340.25966199  .00000033  00000+0  00000+0 0  9999", "line2": "2 32951   0.0151  41.9109 0003334 214.3924 149.4696  1.00269890 43912"}}, "geometry": {"type": "Point", "coordinates": [-124.67459630095152, -0.018997699110311198]}}]}